{"type": "FeatureCollection", "features": [ {"type": "Feature", "properties": {"norad_id": 30409, "name": "FENGYUN 1C DEB", "group": "fengyun-1c-debris", "lat": 57.37006480748353, "lon": -48.14867523568056, "alt_km": 765.386772806075, "timestamp": "2025-12-03T06:58:43.514172+00:00", "meta": {"OBJECT_NAME": "FENGYUN 1C DEB", "OBJECT_ID": "1999-025ADY", "EPOCH": "2025-12-02T10:53:56.760288", "MEAN_MOTION": 14.03681257, "ECCENTRICITY": 0.01684982, "INCLINATION": 98.472, "RA_OF_ASC_NODE": 324.5324, "ARG_OF_PERICENTER": 34.5529, "MEAN_ANOMALY": 117.5759, "EPHEMERIS_TYPE": 0, "CLASSIFICATION_TYPE": "U", "NORAD_CAT_ID": 30409, "ELEMENT_SET_NO": 999, "REV_AT_EPOCH": 96285, "BSTAR": 0.00097201892, "MEAN_MOTION_DOT": 1.694e-05, "MEAN_MOTION_DDOT": 0}, "tle": {"line1": "1 30409U 99025ADY 25336.45412917  .00001694  00000+0  97202-3 0  9995", "line2": "2 30409  98.4720 324.5324 0168498  34.5529 117.5759 14.03681257962857"}}, "geometry": {"type": "Point", "coordinates": [-48.14867523568056, 57.37006480748353]}}, {"type": "Feature", "properties": {"norad_id": 30411, "name": "FENGYUN 1C DEB", "group": "fengyun-1c-debris", "lat": 28.358128732123042, "lon": 73.04555846549975, "alt_km": 782.128101451387, "timestamp": "2025-12-03T06:58:43.514182+00:00", "meta": {"OBJECT_NAME": "FENGYUN 1C DEB", "OBJECT_ID": "1999-025AEA", "EPOCH": "2025-12-02T16:37:16.523040", "MEAN_MOTION": 14.07561356, "ECCENTRICITY": 0.0121797, "INCLINATION": 98.5804, "RA_OF_ASC_NODE": 247.8028, "ARG_OF_PERICENTER": 135.3232, "MEAN_ANOMALY": 225.783, "EPHEMERIS_TYPE": 0, "CLASSIFICATION_TYPE": "U", "NORAD_CAT_ID": 30411, "ELEMENT_SET_NO": 999, "REV_AT_EPOCH": 95842, "BSTAR": 0.0021509, "MEAN_MOTION_DOT": 3.843e-05, "MEAN_MOTION_DDOT": 0}, "tle": {"line1": "1 30411U 99025AEA 25336.69255235  .00003843  00000+0  21509-2 0  9996", "line2": "2 30411  98.5804 247.8028 0121797 135.3232 225.7830 14.07561356958425"}}, "geometry": {"type": "Point", "coordinates": [73.04555846549975, 28.358128732123042]}}, {"type": "Feature", "properties": {"norad_id": 30413, "name": "FENGYUN 1C DEB", "group": "fengyun-1c-debris", "lat": 54.90045453132783, "lon": -171.1863960947756, "alt_km": 811.6811083365819, "timestamp": "2025-12-03T06:58:43.514192+00:00", "meta": {"OBJECT_NAME": "FENGYUN 1C DEB", "OBJECT_ID": "1999-025AEC", "EPOCH": "2025-12-02T14:12:27.143712", "MEAN_MOTION": 14.32339756, "ECCENTRICITY": 0.00464846, "INCLINATION": 102.0624, "RA_OF_ASC_NODE": 205.5587, "ARG_OF_PERICENTER": 243.5905, "MEAN_ANOMALY": 171.6982, "EPHEMERIS_TYPE": 0, "CLASSIFICATION_TYPE": "U", "NORAD_CAT_ID": 30413, "ELEMENT_SET_NO": 999, "REV_AT_EPOCH": 96994, "BSTAR": 0.0030241862, "MEAN_MOTION_DOT": 8.206e-05, "MEAN_MOTION_DDOT": 0}, "tle": {"line1": "1 30413U 99025AEC 25336.59198083  .00008206  00000+0  30242-2 0  9996", "line2": "2 30413 102.0624 205.5587 0046484 243.5905 171.6982 14.32339756969948"}}, "geometry": {"type": "Point", "coordinates": [-171.1863960947756, 54.90045453132783]}}, {"type": "Feature", "properties": {"norad_id": 30414, "name": "FENGYUN 1C DEB", "group": "fengyun-1c-debris", "lat": 80.4664921719266, "lon": 26.29521215958771, "alt_km": 793.9139510310206, "timestamp": "2025-12-03T06:58:43.514202+00:00", "meta": {"OBJECT_NAME": "FENGYUN 1C DEB", "OBJECT_ID": "1999-025AED", "EPOCH": "2025-12-02T08:46:17.836608", "MEAN_MOTION": 14.33902878, "ECCENTRICITY": 0.0058909, "INCLINATION": 99.0805, "RA_OF_ASC_NODE": 133.0977, "ARG_OF_PERICENTER": 218.4453, "MEAN_ANOMALY": 141.2526, "EPHEMERIS_TYPE": 0, "CLASSIFICATION_TYPE": "U", "NORAD_CAT_ID": 30414, "ELEMENT_SET_NO": 999, "REV_AT_EPOCH": 96938, "BSTAR": 0.0032719897, "MEAN_MOTION_DOT": 9.26e-05, "MEAN_MOTION_DDOT": 0}, "tle": {"line1": "1 30414U 99025AED 25336.36548422  .00009260  00000+0  32720-2 0  9992", "line2": "2 30414  99.0805 133.0977 0058909 218.4453 141.2526 14.33902878969384"}}, "geometry": {"type": "Point", "coordinates": [26.29521215958771, 80.4664921719266]}}, {"type": "Feature", "properties": {"norad_id": 30415, "name": "FENGYUN 1C DEB", "group": "fengyun-1c-debris", "lat": -45.94717420271493, "lon": -152.5973123833927, "alt_km": 938.0165911576341, "timestamp": "2025-12-03T06:58:43.514212+00:00", "meta": {"OBJECT_NAME": "FENGYUN 1C DEB", "OBJECT_ID": "1999-025AEE", "EPOCH": "2025-12-01T03:06:59.224032", "MEAN_MOTION": 13.68890538, "ECCENTRICITY": 0.02372113, "INCLINATION": 99.6458, "RA_OF_ASC_NODE": 35.3641, "ARG_OF_PERICENTER": 299.1771, "MEAN_ANOMALY": 86.486, "EPHEMERIS_TYPE": 0, "CLASSIFICATION_TYPE": "U", "NORAD_CAT_ID": 30415, "ELEMENT_SET_NO": 999, "REV_AT_EPOCH": 93719, "BSTAR": 0.0012453341, "MEAN_MOTION_DOT": 1.26e-05, "MEAN_MOTION_DDOT": 0}, "tle": {"line1": "1 30415U 99025AEE 25335.12985213  .00001260  00000+0  12453-2 0  9992", "line2": "2 30415  99.6458  35.3641 0237211 299.1771  86.4860 13.68890538937192"}}, "geometry": {"type": "Point", "coordinates": [-152.5973123833927, -45.94717420271493]}}, {"type": "Feature", "properties": {"norad_id": 30416, "name": "FENGYUN 1C DEB", "group": "fengyun-1c-debris", "lat": -75.43882567638441, "lon": 38.767258405951814, "alt_km": 875.3842591418279, "timestamp": "2025-12-03T06:58:43.514222+00:00", "meta": {"OBJECT_NAME": "FENGYUN 1C DEB", "OBJECT_ID": "1999-025AEF", "EPOCH": "2025-12-02T19:22:07.003200", "MEAN_MOTION": 14.02615806, "ECCENTRICITY": 0.0054871, "INCLINATION": 98.8354, "RA_OF_ASC_NODE": 1.5152, "ARG_OF_PERICENTER": 217.4116, "MEAN_ANOMALY": 142.3225, "EPHEMERIS_TYPE": 0, "CLASSIFICATION_TYPE": "U", "NORAD_CAT_ID": 30416, "ELEMENT_SET_NO": 999, "REV_AT_EPOCH": 96485, "BSTAR": 0.00026206, "MEAN_MOTION_DOT": 3.66e-06, "MEAN_MOTION_DDOT": 0}, "tle": {"line1": "1 30416U 99025AEF 25336.80702550  .00000366  00000+0  26206-3 0  9998", "line2": "2 30416  98.8354   1.5152 0054871 217.4116 142.3225 14.02615806964858"}}, "geometry": {"type": "Point", "coordinates": [38.767258405951814, -75.43882567638441]}}, {"type": "Feature", "properties": {"norad_id": 30417, "name": "FENGYUN 1C DEB", "group": "fengyun-1c-debris", "lat": 81.25635238288609, "lon": -116.56925796094632, "alt_km": 811.0631256929555, "timestamp": "2025-12-03T06:58:43.514232+00:00", "meta": {"OBJECT_NAME": "FENGYUN 1C DEB", "OBJECT_ID": "1999-025AEG", "EPOCH": "2025-12-02T10:54:35.318880", "MEAN_MOTION": 14.14645888, "ECCENTRICITY": 0.0064077, "INCLINATION": 98.6925, "RA_OF_ASC_NODE": 326.7092, "ARG_OF_PERICENTER": 149.1239, "MEAN_ANOMALY": 4.4199, "EPHEMERIS_TYPE": 0, "CLASSIFICATION_TYPE": "U", "NORAD_CAT_ID": 30417, "ELEMENT_SET_NO": 999, "REV_AT_EPOCH": 97243, "BSTAR": 0.00033357361, "MEAN_MOTION_DOT": 6.12e-06, "MEAN_MOTION_DDOT": 0}, "tle": {"line1": "1 30417U 99025AEG 25336.45457545  .00000612  00000+0  33357-3 0  9990", "line2": "2 30417  98.6925 326.7092 0064077 149.1239   4.4199 14.14645888972439"}}, "geometry": {"type": "Point", "coordinates": [-116.56925796094632, 81.25635238288609]}}, {"type": "Feature", "properties": {"norad_id": 30418, "name": "FENGYUN 1C DEB", "group": "fengyun-1c-debris", "lat": 28.76929421215762, "lon": 131.1553460742777, "alt_km": 649.5926519991353, "timestamp": "2025-12-03T06:58:43.514242+00:00", "meta": {"OBJECT_NAME": "FENGYUN 1C DEB", "OBJECT_ID": "1999-025AEH", "EPOCH": "2025-12-02T09:56:21.317568", "MEAN_MOTION": 14.83902123, "ECCENTRICITY": 0.01116075, "INCLINATION": 98.8401, "RA_OF_ASC_NODE": 135.0869, "ARG_OF_PERICENTER": 148.3919, "MEAN_ANOMALY": 241.677, "EPHEMERIS_TYPE": 0, "CLASSIFICATION_TYPE": "U", "NORAD_CAT_ID": 30418, "ELEMENT_SET_NO": 999, "REV_AT_EPOCH": 439, "BSTAR": 0.0013361951, "MEAN_MOTION_DOT": 0.00012342, "MEAN_MOTION_DDOT": 0}, "tle": {"line1": "1 30418U 99025AEH 25336.41413562  .00012342  00000+0  13362-2 0  9994", "line2": "2 30418  98.8401 135.0869 0111607 148.3919 241.6770 14.83902123  4397"}}, "geometry": {"type": "Point", "coordinates": [131.1553460742777, 28.76929421215762]}}, {"type": "Feature", "properties": {"norad_id": 30419, "name": "FENGYUN 1C DEB", "group": "fengyun-1c-debris", "lat": -37.46536275088702, "lon": 96.53285507098822, "alt_km": 875.7285944213545, "timestamp": "2025-12-03T06:58:43.514252+00:00", "meta": {"OBJECT_NAME": "FENGYUN 1C DEB", "OBJECT_ID": "1999-025AEJ", "EPOCH": "2025-12-02T20:04:33.364128", "MEAN_MOTION": 14.17985944, "ECCENTRICITY": 0.0053025, "INCLINATION": 99.2394, "RA_OF_ASC_NODE": 283.2264, "ARG_OF_PERICENTER": 52.2615, "MEAN_ANOMALY": 7.8236, "EPHEMERIS_TYPE": 0, "CLASSIFICATION_TYPE": "U", "NORAD_CAT_ID": 30419, "ELEMENT_SET_NO": 999, "REV_AT_EPOCH": 97208, "BSTAR": 0.0010338, "MEAN_MOTION_DOT": 2.099e-05, "MEAN_MOTION_DDOT": 0}, "tle": {"line1": "1 30419U 99025AEJ 25336.83649727  .00002099  00000+0  10338-2 0  9993", "line2": "2 30419  99.2394 283.2264 0053025  52.2615   7.8236 14.17985944972082"}}, "geometry": {"type": "Point", "coordinates": [96.53285507098822, -37.46536275088702]}}, {"type": "Feature", "properties": {"norad_id": 30432, "name": "FENGYUN 1C DEB", "group": "fengyun-1c-debris", "lat": 17.408412262751064, "lon": 58.64702729216251, "alt_km": 811.1669642858742, "timestamp": "2025-12-03T06:58:43.514262+00:00", "meta": {"OBJECT_NAME": "FENGYUN 1C DEB", "OBJECT_ID": "1999-025AET", "EPOCH": "2025-12-02T03:33:35.040672", "MEAN_MOTION": 14.40595257, "ECCENTRICITY": 0.00836949, "INCLINATION": 98.8355, "RA_OF_ASC_NODE": 234.6722, "ARG_OF_PERICENTER": 10.2157, "MEAN_ANOMALY": 350.0707, "EPHEMERIS_TYPE": 0, "CLASSIFICATION_TYPE": "U", "NORAD_CAT_ID": 30432, "ELEMENT_SET_NO": 999, "REV_AT_EPOCH": 98582, "BSTAR": 0.00085958635, "MEAN_MOTION_DOT": 2.808e-05, "MEAN_MOTION_DDOT": 0}, "tle": {"line1": "1 30432U 99025AET 25336.14832223  .00002808  00000+0  85959-3 0  9997", "line2": "2 30432  98.8355 234.6722 0083694  10.2157 350.0707 14.40595257985820"}}, "geometry": {"type": "Point", "coordinates": [58.64702729216251, 17.408412262751064]}}]}